CCSDS_OMM_VERS,COMMENT,CREATION_DATE,ORIGINATOR,OBJECT_NAME,OBJECT_ID,CENTER_NAME,REF_FRAME,TIME_SYSTEM,MEAN_ELEMENT_THEORY,EPOCH,MEAN_MOTION,ECCENTRICITY,INCLINATION,RA_OF_ASC_NODE,ARG_OF_PERICENTER,MEAN_ANOMALY,EPHEMERIS_TYPE,CLASSIFICATION_TYPE,NORAD_CAT_ID,ELEMENT_SET_NO,REV_AT_EPOCH,BSTAR,MEAN_MOTION_DOT,MEAN_MOTION_DDOT,SEMIMAJOR_AXIS,PERIOD,APOAPSIS,PERIAPSIS,OBJECT_TYPE,RCS_SIZE,COUNTRY_CODE,LAUNCH_DATE,SITE,DECAY_DATE,FILE,GP_ID,TLE_LINE0,TLE_LINE1,TLE_LINE2
2,GENERATED VIA SPACE-TRACK.ORG API,2017-11-19T22:59:20,18 SPCS,SKYNET 4D,1998-002A,EARTH,TEME,UTC,SGP4,2017-11-19T02:38:39.801696,0.99151656,0.0002523,10.6749,30.1272,175.6286,175.024,0,U,25134,999,7231,0.0,-1.18e-06,0,42481.697,1452.32,36114.28,36092.844,PAYLOAD,LARGE,UK,1998-01-10,AFETR,,2209028,115726595,0 SKYNET 4D,1 25134U 98002A   17323.11018289 -.00000118 +00000-0 +00000-0 0  9991,2 25134 010.6749 030.1272 0002523 175.6286 175.0240 00.99151656072310
2,GENERATED VIA SPACE-TRACK.ORG API,2017-11-20T06:55:53,18 SPCS,SKYNET 4D,1998-002A,EARTH,TEME,UTC,SGP4,2017-11-20T03:34:42.615840,0.99151359,0.0002488,10.6758,30.1195,176.7455,184.7572,0,U,25134,999,7239,0.0,-9.4e-07,0,42481.782,1452.325,36114.216,36093.077,PAYLOAD,LARGE,UK,1998-01-10,AFETR,,2209172,115733997,0 SKYNET 4D,1 25134U 98002A   17324.14910435 -.00000094  00000-0  00000+0 0  9991,2 25134  10.6758  30.1195 0002488 176.7455 184.7572  0.99151359 72397
2,GENERATED VIA SPACE-TRACK.ORG API,2017-11-22T05:50:15,18 SPCS,SKYNET 4D,1998-002A,EARTH,TEME,UTC,SGP4,2017-11-21T03:41:39.684192,0.99151116,0.0002467,10.6768,30.1122,177.3949,182.7868,0,U,25134,999,7233,0.0,-7.2e-07,0,42481.851,1452.328,36114.196,36093.236,PAYLOAD,LARGE,UK,1998-01-10,AFETR,,2210024,115777733,0 SKYNET 4D,1 25134U 98002A   17325.15393153 -.00000072 +00000-0 +00000-0 0  9992,2 25134 010.6768 030.1122 0002467 177.3949 182.7868 00.99151116072331
2,GENERATED VIA SPACE-TRACK.ORG API,2017-11-23T07:01:53,18 SPCS,SKYNET 4D,1998-002A,EARTH,TEME,UTC,SGP4,2017-11-23T03:40:39.830592,0.99150795,0.0002387,10.6787,30.0974,179.3155,174.5302,0,U,25134,999,7242,0.0,-2.9e-07,0,42481.943,1452.333,36113.948,36093.667,PAYLOAD,LARGE,UK,1998-01-10,AFETR,,2210513,115803161,0 SKYNET 4D,1 25134U 98002A   17327.15323878 -.00000029  00000-0  00000+0 0  9992,2 25134  10.6787  30.0974 0002387 179.3155 174.5302  0.99150795 72422
2,GENERATED VIA SPACE-TRACK.ORG API,2017-11-24T12:42:50,18 SPCS,SKYNET 4D,1998-002A,EARTH,TEME,UTC,SGP4,2017-11-24T04:27:42.591168,0.99150661,0.0002344,10.6796,30.0897,180.1742,182.2866,0,U,25134,999,7237,0.0,-8e-08,0,42481.981,1452.335,36113.804,36093.888,PAYLOAD,LARGE,UK,1998-01-10,AFETR,,2211003,115836196,0 SKYNET 4D,1 25134U 98002A   17328.18590962 -.00000008 +00000-0 +00000-0 0  9994,2 25134 010.6796 030.0897 0002344 180.1742 182.2866 00.99150661072378
2,GENERATED VIA SPACE-TRACK.ORG API,2017-11-24T22:40:32,18 SPCS,SKYNET 4D,1998-002A,EARTH,TEME,UTC,SGP4,2017-11-24T12:14:09.691296,0.99150625,0.0002323,10.6799,30.0874,180.6102,297.4763,0,U,25134,999,7237,0.0,-2e-08,0,42481.991,1452.335,36113.725,36093.988,PAYLOAD,LARGE,UK,1998-01-10,AFETR,,2211223,115855644,0 SKYNET 4D,1 25134U 98002A   17328.50983439 -.00000002 +00000-0 +00000-0 0  9999,2 25134 010.6799 030.0874 0002323 180.6102 297.4763 00.99150625072373
2,GENERATED VIA SPACE-TRACK.ORG API,2017-11-25T07:01:25,18 SPCS,SKYNET 4D,1998-002A,EARTH,TEME,UTC,SGP4,2017-11-25T05:12:47.617056,0.99150598,0.0002294,10.6806,30.0821,181.2777,189.3123,0,U,25134,999,7244,0.0,1.1e-07,0,42481.999,1452.336,36113.609,36094.119,PAYLOAD,LARGE,UK,1998-01-10,AFETR,,2211375,115869666,0 SKYNET 4D,1 25134U 98002A   17329.21721779  .00000011  00000-0  00000+0 0  9993,2 25134  10.6806  30.0821 0002294 181.2777 189.3123  0.99150598 72442
2,GENERATED VIA SPACE-TRACK.ORG API,2017-11-26T06:27:14,18 SPCS,SKYNET 4D,1998-002A,EARTH,TEME,UTC,SGP4,2017-11-25T12:30:55.001088,0.99150594,0.0002275,10.6809,30.0799,181.653,297.541,0,U,25134,999,7238,0.0,1.6e-07,0,42482.0,1452.336,36113.53,36094.2,PAYLOAD,LARGE,UK,1998-01-10,AFETR,,2211807,115883953,0 SKYNET 4D,1 25134U 98002A   17329.52146992 +.00000016 +00000-0 +00000-0 0  9991,2 25134 010.6809 030.0799 0002275 181.6530 297.5410 00.99150594072389
2,GENERATED VIA SPACE-TRACK.ORG API,2017-11-27T23:01:25,18 SPCS,SKYNET 4D,1998-002A,EARTH,TEME,UTC,SGP4,2017-11-27T11:43:51.538944,0.99150654,0.0002198,10.6827,30.0654,182.8879,278.5486,0,U,25134,999,7246,0.0,4.5e-07,0,42481.983,1452.335,36113.186,36094.51,PAYLOAD,LARGE,UK,1998-01-10,AFETR,,2212654,115923150,0 SKYNET 4D,1 25134U 98002A   17331.48879096  .00000045  00000-0  00000+0 0  9998,2 25134  10.6827  30.0654 0002198 182.8879 278.5486  0.99150654 72460
2,GENERATED VIA SPACE-TRACK.ORG API,2017-11-29T06:57:30,18 SPCS,SKYNET 4D,1998-002A,EARTH,TEME,UTC,SGP4,2017-11-28T05:49:51.648960,0.99150729,0.0002176,10.6834,30.0598,183.2899,187.35,0,U,25134,999,7241,0.0,5.3e-07,0,42481.962,1452.334,36113.071,36094.582,PAYLOAD,LARGE,UK,1998-01-10,AFETR,,2213296,115948732,0 SKYNET 4D,1 25134U 98002A   17332.24295890 +.00000053 +00000-0 +00000-0 0  9997,2 25134 010.6834 030.0598 0002176 183.2899 187.3500 00.99150729072410
2,GENERATED VIA SPACE-TRACK.ORG API,2017-11-30T00:19:35,18 SPCS,SKYNET 4D,1998-002A,EARTH,TEME,UTC,SGP4,2017-11-29T14:28:58.993248,0.99150934,0.0002125,10.6846,30.0497,183.9477,312.3295,0,U,25134,999,7242,0.0,6.4e-07,0,42481.903,1452.331,36112.795,36094.741,PAYLOAD,LARGE,UK,1998-01-10,AFETR,,2213598,115963849,0 SKYNET 4D,1 25134U 98002A   17333.60346057 +.00000064 +00000-0 +00000-0 0  9992,2 25134 010.6846 030.0497 0002125 183.9477 312.3295 00.99150934072424
2,GENERATED VIA SPACE-TRACK.ORG API,2017-11-30T07:07:47,18 SPCS,SKYNET 4D,1998-002A,EARTH,TEME,UTC,SGP4,2017-11-29T14:28:58.993248,0.99150934,0.0002125,10.6846,30.0497,183.9477,312.3295,0,U,25134,999,7248,0.0,6.4e-07,0,42481.903,1452.331,36112.795,36094.741,PAYLOAD,LARGE,UK,1998-01-10,AFETR,,2213599,115972519,0 SKYNET 4D,1 25134U 98002A   17333.60346057 +.00000064 +00000-0 +00000-0 0  9992,2 25134 010.6846 030.0497 0002125 183.9477 312.3295 00.99150934072480
2,GENERATED VIA SPACE-TRACK.ORG API,2017-12-02T07:00:58,18 SPCS,SKYNET 4D,1998-002A,EARTH,TEME,UTC,SGP4,2017-12-02T04:15:43.701696,0.99151589,0.0002062,10.6869,30.0303,185.2583,149.8721,0,U,25134,999,7250,0.0,6.7e-07,0,42481.716,1452.321,36112.341,36094.821,PAYLOAD,LARGE,UK,1998-01-10,AFETR,,2214828,116033302,0 SKYNET 4D,1 25134U 98002A   17336.17758914  .00000067  00000-0  00000+0 0  9998,2 25134  10.6869  30.0303 0002062 185.2583 149.8721  0.99151589 72501
2,GENERATED VIA SPACE-TRACK.ORG API,2017-12-03T06:36:31,18 SPCS,SKYNET 4D,1998-002A,EARTH,TEME,UTC,SGP4,2017-12-02T06:59:52.302048,0.99151623,0.0002061,10.687,30.0294,185.158,190.6614,0,U,25134,999,7245,0.0,6.6e-07,0,42481.706,1452.321,36112.327,36094.816,PAYLOAD,LARGE,UK,1998-01-10,AFETR,,2215240,116055686,0 SKYNET 4D,1 25134U 98002A   17336.29157757 +.00000066 +00000-0 +00000-0 0  9999,2 25134 010.6870 030.0294 0002061 185.1580 190.6614 00.99151623072455
2,GENERATED VIA SPACE-TRACK.ORG API,2017-12-03T22:55:25,18 SPCS,SKYNET 4D,1998-002A,EARTH,TEME,UTC,SGP4,2017-12-03T13:34:02.837568,0.99152041,0.0002038,10.6881,30.0198,185.56,284.9297,0,U,25134,999,7246,0.0,5.8e-07,0,42481.587,1452.315,36112.11,36094.794,PAYLOAD,LARGE,UK,1998-01-10,AFETR,,2215549,116071561,0 SKYNET 4D,1 25134U 98002A   17337.56531062 +.00000058 +00000-0 +00000-0 0  9996,2 25134 010.6881 030.0198 0002038 185.5600 284.9297 00.99152041072461
2,GENERATED VIA SPACE-TRACK.ORG API,2017-12-05T07:00:50,18 SPCS,SKYNET 4D,1998-002A,EARTH,TEME,UTC,SGP4,2017-12-05T04:44:24.385344,0.99152641,0.0002025,10.6895,30.0074,186.4857,146.633,0,U,25134,999,7253,0.0,4e-07,0,42481.415,1452.306,36111.883,36094.678,PAYLOAD,LARGE,UK,1998-01-10,AFETR,,2216255,116113393,0 SKYNET 4D,1 25134U 98002A   17339.19750446  .00000040  00000-0  00000+0 0  9996,2 25134  10.6895  30.0074 0002025 186.4857 146.6330  0.99152641 72535
2,GENERATED VIA SPACE-TRACK.ORG API,2017-12-06T01:39:21,18 SPCS,SKYNET 4D,1998-002A,EARTH,TEME,UTC,SGP4,2017-12-05T10:31:03.758880,0.99152731,0.0002025,10.6897,30.0055,186.4523,232.5989,0,U,25134,999,7248,0.0,3.6e-07,0,42481.39,1452.304,36111.857,36094.652,PAYLOAD,LARGE,UK,1998-01-10,AFETR,,2216714,116125798,0 SKYNET 4D,1 25134U 98002A   17339.43823795 +.00000036 +00000-0 +00000-0 0  9997,2 25134 010.6897 030.0055 0002025 186.4523 232.5989 00.99152731072485
2,GENERATED VIA SPACE-TRACK.ORG API,2017-12-06T23:52:55,18 SPCS,SKYNET 4D,1998-002A,EARTH,TEME,UTC,SGP4,2017-12-06T10:16:23.200320,0.99153124,0.0002019,10.6906,29.998,187.124,225.2517,0,U,25134,999,7249,0.0,2e-07,0,42481.277,1452.299,36111.719,36094.566,PAYLOAD,LARGE,UK,1998-01-10,AFETR,,2217235,116151402,0 SKYNET 4D,1 25134U 98002A   17340.42804630 +.00000020 +00000-0 +00000-0 0  9998,2 25134 010.6906 029.9980 0002019 187.1240 225.2517 00.99153124072491
2,GENERATED VIA SPACE-TRACK.ORG API,2017-12-07T12:05:52,18 SPCS,SKYNET 4D,1998-002A,EARTH,TEME,UTC,SGP4,2017-12-07T03:53:15.631008,0.99153437,0.0002021,10.6913,29.9925,187.4568,126.9094,0,U,25134,999,7249,0.0,7e-08,0,42481.188,1452.294,36111.639,36094.468,PAYLOAD,LARGE,UK,1998-01-10,AFETR,,2217428,116164772,0 SKYNET 4D,1 25134U 98002A   17341.16198647 +.00000007 +00000-0 +00000-0 0  9999,2 25134 010.6913 029.9925 0002021 187.4568 126.9094 00.99153437072491
2,GENERATED VIA SPACE-TRACK.ORG API,2017-12-07T12:41:52,18 SPCS,SKYNET 4D,1998-002A,EARTH,TEME,UTC,SGP4,2017-12-07T10:01:33.092832,0.99153539,0.0002019,10.6915,29.9906,187.7256,217.9368,0,U,25134,999,7256,0.0,2e-08,0,42481.159,1452.293,36111.601,36094.447,PAYLOAD,LARGE,UK,1998-01-10,AFETR,,2217478,116171177,0 SKYNET 4D,1 25134U 98002A   17341.41774413  .00000002  00000-0  00000+0 0  9992,2 25134  10.6915  29.9906 0002019 187.7256 217.9368  0.99153539 72562
